{"type": "FeatureCollection", "features": [{"type": "Feature", "properties": {"norad_id": 24876, "name": "GPS BIIR-2  (PRN 13)", "group": "gnss", "lat": 55.757734876597105, "lon": -169.97747463922832, "alt_km": 19952.214224033978, "timestamp": "2025-12-09T20:37:09.527851+00:00", "meta": {"OBJECT_NAME": "GPS BIIR-2  (PRN 13)", "OBJECT_ID": "1997-035A", "EPOCH": "2025-12-09T05:49:21.634464", "MEAN_MOTION": 2.00563541, "ECCENTRICITY": 0.00967453, "INCLINATION": 55.8936, "RA_OF_ASC_NODE": 106.0057, "ARG_OF_PERICENTER": 57.0125, "MEAN_ANOMALY": 303.8888, "EPHEMERIS_TYPE": 0, "CLASSIFICATION_TYPE": "U", "NORAD_CAT_ID": 24876, "ELEMENT_SET_NO": 999, "REV_AT_EPOCH": 20814, "BSTAR": 0, "MEAN_MOTION_DOT": 2e-07, "MEAN_MOTION_DDOT": 0}, "tle": {"line1": "1 24876U 97035A   25343.24261151  .00000020  00000+0  00000+0 0  9990", "line2": "2 24876  55.8936 106.0057 0096745  57.0125 303.8888  2.00563541208144"}}, "geometry": {"type": "Point", "coordinates": [-169.97747463922832, 55.757734876597105]}}, {"type": "Feature", "properties": {"norad_id": 26360, "name": "GPS BIIR-4  (PRN 20)", "group": "gnss", "lat": 1.9944400884642168, "lon": -154.42517358573332, "alt_km": 20136.402461722264, "timestamp": "2025-12-09T20:37:09.527904+00:00", "meta": {"OBJECT_NAME": "GPS BIIR-4  (PRN 20)", "OBJECT_ID": "2000-025A", "EPOCH": "2025-12-09T04:14:58.003872", "MEAN_MOTION": 2.00567914, "ECCENTRICITY": 0.00388478, "INCLINATION": 55.0431, "RA_OF_ASC_NODE": 26.982, "ARG_OF_PERICENTER": 241.6461, "MEAN_ANOMALY": 163.8162, "EPHEMERIS_TYPE": 0, "CLASSIFICATION_TYPE": "U", "NORAD_CAT_ID": 26360, "ELEMENT_SET_NO": 999, "REV_AT_EPOCH": 18746, "BSTAR": 0, "MEAN_MOTION_DOT": -9.2e-07, "MEAN_MOTION_DDOT": 0}, "tle": {"line1": "1 26360U 00025A   25343.17706023 -.00000092  00000+0  00000+0 0  9997", "line2": "2 26360  55.0431  26.9820 0038847 241.6461 163.8162  2.00567914187465"}}, "geometry": {"type": "Point", "coordinates": [-154.42517358573332, 1.9944400884642168]}}, {"type": "Feature", "properties": {"norad_id": 26407, "name": "GPS BIIR-5  (PRN 22)", "group": "gnss", "lat": 15.356553424100634, "lon": -126.17601437072393, "alt_km": 20101.429721650766, "timestamp": "2025-12-09T20:37:09.527925+00:00", "meta": {"OBJECT_NAME": "GPS BIIR-5  (PRN 22)", "OBJECT_ID": "2000-040A", "EPOCH": "2025-12-09T01:51:39.036096", "MEAN_MOTION": 2.00567849, "ECCENTRICITY": 0.01262118, "INCLINATION": 54.8916, "RA_OF_ASC_NODE": 222.7147, "ARG_OF_PERICENTER": 301.7415, "MEAN_ANOMALY": 231.4474, "EPHEMERIS_TYPE": 0, "CLASSIFICATION_TYPE": "U", "NORAD_CAT_ID": 26407, "ELEMENT_SET_NO": 999, "REV_AT_EPOCH": 18613, "BSTAR": 0, "MEAN_MOTION_DOT": 8e-08, "MEAN_MOTION_DDOT": 0}, "tle": {"line1": "1 26407U 00040A   25343.07753514  .00000008  00000+0  00000+0 0  9998", "line2": "2 26407  54.8916 222.7147 0126211 301.7415 231.4474  2.00567849186138"}}, "geometry": {"type": "Point", "coordinates": [-126.17601437072393, 15.356553424100634]}}, {"type": "Feature", "properties": {"norad_id": 27663, "name": "GPS BIIR-8  (PRN 16)", "group": "gnss", "lat": 20.209229420175653, "lon": 27.52240644538933, "alt_km": 20263.572186787173, "timestamp": "2025-12-09T20:37:09.527940+00:00", "meta": {"OBJECT_NAME": "GPS BIIR-8  (PRN 16)", "OBJECT_ID": "2003-005A", "EPOCH": "2025-12-09T15:52:30.360000", "MEAN_MOTION": 2.00571029, "ECCENTRICITY": 0.0147333, "INCLINATION": 54.924, "RA_OF_ASC_NODE": 222.5008, "ARG_OF_PERICENTER": 51.758, "MEAN_ANOMALY": 318.9168, "EPHEMERIS_TYPE": 0, "CLASSIFICATION_TYPE": "U", "NORAD_CAT_ID": 27663, "ELEMENT_SET_NO": 999, "REV_AT_EPOCH": 16751, "BSTAR": 0, "MEAN_MOTION_DOT": 3e-08, "MEAN_MOTION_DDOT": 0}, "tle": {"line1": "1 27663U 03005A   25343.66146250  .00000003  00000+0  00000+0 0  9990", "line2": "2 27663  54.9240 222.5008 0147333  51.7580 318.9168  2.00571029167518"}}, "geometry": {"type": "Point", "coordinates": [27.52240644538933, 20.209229420175653]}}, {"type": "Feature", "properties": {"norad_id": 28190, "name": "GPS BIIR-11 (PRN 19)", "group": "gnss", "lat": -36.831880176093414, "lon": -108.30518018858314, "alt_km": 20423.038658262354, "timestamp": "2025-12-09T20:37:09.527954+00:00", "meta": {"OBJECT_NAME": "GPS BIIR-11 (PRN 19)", "OBJECT_ID": "2004-009A", "EPOCH": "2025-12-09T02:41:41.936352", "MEAN_MOTION": 2.00560834, "ECCENTRICITY": 0.01083049, "INCLINATION": 54.989, "RA_OF_ASC_NODE": 283.3651, "ARG_OF_PERICENTER": 167.5856, "MEAN_ANOMALY": 325.415, "EPHEMERIS_TYPE": 0, "CLASSIFICATION_TYPE": "U", "NORAD_CAT_ID": 28190, "ELEMENT_SET_NO": 999, "REV_AT_EPOCH": 15913, "BSTAR": 0, "MEAN_MOTION_DOT": -5.3e-07, "MEAN_MOTION_DDOT": 0}, "tle": {"line1": "1 28190U 04009A   25343.11229093 -.00000053  00000+0  00000+0 0  9994", "line2": "2 28190  54.9890 283.3651 0108304 167.5856 325.4150  2.00560834159136"}}, "geometry": {"type": "Point", "coordinates": [-108.30518018858314, -36.831880176093414]}}, {"type": "Feature", "properties": {"norad_id": 28474, "name": "GPS BIIR-13 (PRN 02)", "group": "gnss", "lat": 11.495197552309339, "lon": -19.371465351840975, "alt_km": 19982.633673821147, "timestamp": "2025-12-09T20:37:09.527968+00:00", "meta": {"OBJECT_NAME": "GPS BIIR-13 (PRN 02)", "OBJECT_ID": "2004-045A", "EPOCH": "2025-12-09T12:22:18.068160", "MEAN_MOTION": 2.00569281, "ECCENTRICITY": 0.01706994, "INCLINATION": 55.2423, "RA_OF_ASC_NODE": 332.5354, "ARG_OF_PERICENTER": 309.1094, "MEAN_ANOMALY": 175.0293, "EPHEMERIS_TYPE": 0, "CLASSIFICATION_TYPE": "U", "NORAD_CAT_ID": 28474, "ELEMENT_SET_NO": 999, "REV_AT_EPOCH": 15462, "BSTAR": 0, "MEAN_MOTION_DOT": -8.4e-07, "MEAN_MOTION_DDOT": 0}, "tle": {"line1": "1 28474U 04045A   25343.51548690 -.00000084  00000+0  00000+0 0  9994", "line2": "2 28474  55.2423 332.5354 0170699 309.1094 175.0293  2.00569281154629"}}, "geometry": {"type": "Point", "coordinates": [-19.371465351840975, 11.495197552309339]}}, {"type": "Feature", "properties": {"norad_id": 28874, "name": "GPS BIIRM-1 (PRN 17)", "group": "gnss", "lat": -22.641367534862336, "lon": -96.14580047258572, "alt_km": 19908.22990412861, "timestamp": "2025-12-09T20:37:09.527982+00:00", "meta": {"OBJECT_NAME": "GPS BIIRM-1 (PRN 17)", "OBJECT_ID": "2005-038A", "EPOCH": "2025-12-09T01:52:55.801632", "MEAN_MOTION": 2.0057855, "ECCENTRICITY": 0.01317498, "INCLINATION": 55.0352, "RA_OF_ASC_NODE": 280.8483, "ARG_OF_PERICENTER": 293.4065, "MEAN_ANOMALY": 193.8993, "EPHEMERIS_TYPE": 0, "CLASSIFICATION_TYPE": "U", "NORAD_CAT_ID": 28874, "ELEMENT_SET_NO": 999, "REV_AT_EPOCH": 14802, "BSTAR": 0, "MEAN_MOTION_DOT": -5e-07, "MEAN_MOTION_DDOT": 0}, "tle": {"line1": "1 28874U 05038A   25343.07842363 -.00000050  00000+0  00000+0 0  9999", "line2": "2 28874  55.0352 280.8483 0131749 293.4065 193.8993  2.00578550148027"}}, "geometry": {"type": "Point", "coordinates": [-96.14580047258572, -22.641367534862336]}}, {"type": "Feature", "properties": {"norad_id": 28899, "name": "INMARSAT 4-F2 (SOUTHPAN/PRN 122)", "group": "gnss", "lat": 3.8223302907934524, "lon": 171.71992322228593, "alt_km": 35781.33924360383, "timestamp": "2025-12-09T20:37:09.527999+00:00", "meta": {"OBJECT_NAME": "INMARSAT 4-F2 (SOUTHPAN/PRN 122)", "OBJECT_ID": "2005-044A", "EPOCH": "2025-12-09T12:32:28.611168", "MEAN_MOTION": 1.00277374, "ECCENTRICITY": 0.00030891, "INCLINATION": 4.8484, "RA_OF_ASC_NODE": 43.6799, "ARG_OF_PERICENTER": 205.8718, "MEAN_ANOMALY": 160.592, "EPHEMERIS_TYPE": 0, "CLASSIFICATION_TYPE": "U", "NORAD_CAT_ID": 28899, "ELEMENT_SET_NO": 999, "REV_AT_EPOCH": 7362, "BSTAR": 0, "MEAN_MOTION_DOT": -2.58e-06, "MEAN_MOTION_DDOT": 0}, "tle": {"line1": "1 28899U 05044A   25343.52255337 -.00000258  00000+0  00000+0 0  9992", "line2": "2 28899   4.8484  43.6799 0003089 205.8718 160.5920  1.00277374 73627"}}, "geometry": {"type": "Point", "coordinates": [171.71992322228593, 3.8223302907934524]}}, {"type": "Feature", "properties": {"norad_id": 29486, "name": "GPS BIIRM-2 (PRN 31)", "group": "gnss", "lat": -41.56563843655072, "lon": 17.796634646590743, "alt_km": 20472.72984586127, "timestamp": "2025-12-09T20:37:09.528012+00:00", "meta": {"OBJECT_NAME": "GPS BIIRM-2 (PRN 31)", "OBJECT_ID": "2006-042A", "EPOCH": "2025-12-09T13:14:35.270304", "MEAN_MOTION": 2.00554233, "ECCENTRICITY": 0.01073632, "INCLINATION": 54.6937, "RA_OF_ASC_NODE": 158.8672, "ARG_OF_PERICENTER": 51.886, "MEAN_ANOMALY": 320.6455, "EPHEMERIS_TYPE": 0, "CLASSIFICATION_TYPE": "U", "NORAD_CAT_ID": 29486, "ELEMENT_SET_NO": 999, "REV_AT_EPOCH": 14059, "BSTAR": 0, "MEAN_MOTION_DOT": 6.7e-07, "MEAN_MOTION_DDOT": 0}, "tle": {"line1": "1 29486U 06042A   25343.55179711  .00000067  00000+0  00000+0 0  9995", "line2": "2 29486  54.6937 158.8672 0107363  51.8860 320.6455  2.00554233140598"}}, "geometry": {"type": "Point", "coordinates": [17.796634646590743, -41.56563843655072]}}, {"type": "Feature", "properties": {"norad_id": 29601, "name": "GPS BIIRM-3 (PRN 12)", "group": "gnss", "lat": -49.665577676599554, "lon": 165.88021443050374, "alt_km": 20399.144798862577, "timestamp": "2025-12-09T20:37:09.528025+00:00", "meta": {"OBJECT_NAME": "GPS BIIRM-3 (PRN 12)", "OBJECT_ID": "2006-052A", "EPOCH": "2025-12-08T22:59:17.672352", "MEAN_MOTION": 2.00573222, "ECCENTRICITY": 0.0087721, "INCLINATION": 54.9712, "RA_OF_ASC_NODE": 221.5484, "ARG_OF_PERICENTER": 87.3994, "MEAN_ANOMALY": 273.6864, "EPHEMERIS_TYPE": 0, "CLASSIFICATION_TYPE": "U", "NORAD_CAT_ID": 29601, "ELEMENT_SET_NO": 999, "REV_AT_EPOCH": 13959, "BSTAR": 0, "MEAN_MOTION_DOT": 1e-07, "MEAN_MOTION_DDOT": 0}, "tle": {"line1": "1 29601U 06052A   25342.95784343  .00000010  00000+0  00000+0 0  9999", "line2": "2 29601  54.9712 221.5484 0087721  87.3994 273.6864  2.00573222139595"}}, "geometry": {"type": "Point", "coordinates": [165.88021443050374, -49.665577676599554]}}]}